{
  "type": "FeatureCollection",
  "features": [
    {
      "type": "Feature",
      "properties": {
        "norad_id": 33860,
        "name": "IRIDIUM 33 DEB",
        "group": "iridium-33-debris",
        "lat": 76.10531810880488,
        "lon": 37.74438423064739,
        "alt_km": 663.9765511592295,
        "timestamp": "2025-12-22T11:33:20.824500+00:00",
        "meta_object_name": "IRIDIUM 33 DEB",
        "meta_object_id": "1997-051AD",
        "meta_epoch": "2025-12-22T01:29:22.706304",
        "meta_mean_motion": 14.67472484,
        "meta_eccentricity": 0.0006313,
        "meta_inclination": 86.3821,
        "meta_ra_of_asc_node": 23.1111,
        "meta_arg_of_pericenter": 322.0351,
        "meta_mean_anomaly": 60.1727,
        "meta_ephemeris_type": 0,
        "meta_classification_type": "U",
        "meta_norad_cat_id": 33860,
        "meta_element_set_no": 999,
        "meta_rev_at_epoch": 88859,
        "meta_bstar": 0.0011042,
        "meta_mean_motion_dot": 6.276e-05,
        "meta_mean_motion_ddot": 0,
        "tle_line1": "1 33860U 97051AD  25356.06206836  .00006276  00000+0  11042-2 0  9994",
        "tle_line2": "2 33860  86.3821  23.1111 0006313 322.0351  60.1727 14.67472484888596"
      },
      "geometry": {
        "type": "Point",
        "coordinates": [
          37.74438423064739,
          76.10531810880488
        ]
      }
    },
    {
      "type": "Feature",
      "properties": {
        "norad_id": 33862,
        "name": "IRIDIUM 33 DEB",
        "group": "iridium-33-debris",
        "lat": -6.645579261665819,
        "lon": -146.3466336663491,
        "alt_km": 698.2685153023185,
        "timestamp": "2025-12-22T11:33:20.824511+00:00",
        "meta_object_name": "IRIDIUM 33 DEB",
        "meta_object_id": "1997-051AF",
        "meta_epoch": "2025-12-21T13:59:31.257024",
        "meta_mean_motion": 14.69601315,
        "meta_eccentricity": 0.0052554,
        "meta_inclination": 86.4078,
        "meta_ra_of_asc_node": 33.6303,
        "meta_arg_of_pericenter": 39.5195,
        "meta_mean_anomaly": 76.2806,
        "meta_ephemeris_type": 0,
        "meta_classification_type": "U",
        "meta_norad_cat_id": 33862,
        "meta_element_set_no": 999,
        "meta_rev_at_epoch": 88953,
        "meta_bstar": 0.0010364,
        "meta_mean_motion_dot": 6.314e-05,
        "meta_mean_motion_ddot": 0,
        "tle_line1": "1 33862U 97051AF  25355.58300066  .00006314  00000+0  10364-2 0  9991",
        "tle_line2": "2 33862  86.4078  33.6303 0052554  39.5195  76.2806 14.69601315889536"
      },
      "geometry": {
        "type": "Point",
        "coordinates": [
          -146.3466336663491,
          -6.645579261665819
        ]
      }
    },
    {
      "type": "Feature",
      "properties": {
        "norad_id": 33866,
        "name": "IRIDIUM 33 DEB",
        "group": "iridium-33-debris",
        "lat": 37.994806052989404,
        "lon": -93.98282996165588,
        "alt_km": 723.6738772156141,
        "timestamp": "2025-12-22T11:33:20.824522+00:00",
        "meta_object_name": "IRIDIUM 33 DEB",
        "meta_object_id": "1997-051AK",
        "meta_epoch": "2025-12-21T06:30:23.838336",
        "meta_mean_motion": 14.25298734,
        "meta_eccentricity": 0.0115015,
        "meta_inclination": 86.3001,
        "meta_ra_of_asc_node": 89.4265,
        "meta_arg_of_pericenter": 134.3497,
        "meta_mean_anomaly": 280.5396,
        "meta_ephemeris_type": 0,
        "meta_classification_type": "U",
        "meta_norad_cat_id": 33866,
        "meta_element_set_no": 999,
        "meta_rev_at_epoch": 86932,
        "meta_bstar": 0.00042898,
        "meta_mean_motion_dot": 1.102e-05,
        "meta_mean_motion_ddot": 0,
        "tle_line1": "1 33866U 97051AK  25355.27110924  .00001102  00000+0  42898-3 0  9991",
        "tle_line2": "2 33866  86.3001  89.4265 0115015 134.3497 280.5396 14.25298734869320"
      },
      "geometry": {
        "type": "Point",
        "coordinates": [
          -93.98282996165588,
          37.994806052989404
        ]
      }
    },
    {
      "type": "Feature",
      "properties": {
        "norad_id": 33867,
        "name": "IRIDIUM 33 DEB",
        "group": "iridium-33-debris",
        "lat": 46.11214371282886,
        "lon": 161.17805848637929,
        "alt_km": 281.0430909315701,
        "timestamp": "2025-12-22T11:33:20.824533+00:00",
        "meta_object_name": "IRIDIUM 33 DEB",
        "meta_object_id": "1997-051AL",
        "meta_epoch": "2025-12-21T22:55:51.891744",
        "meta_mean_motion": 15.90971468,
        "meta_eccentricity": 0.0014243,
        "meta_inclination": 86.3678,
        "meta_ra_of_asc_node": 345.2475,
        "meta_arg_of_pericenter": 91.4909,
        "meta_mean_anomaly": 268.8004,
        "meta_ephemeris_type": 0,
        "meta_classification_type": "U",
        "meta_norad_cat_id": 33867,
        "meta_element_set_no": 999,
        "meta_rev_at_epoch": 89656,
        "meta_bstar": 0.0080182,
        "meta_mean_motion_dot": 0.02400384,
        "meta_mean_motion_ddot": 0.0036963,
        "tle_line1": "1 33867U 97051AL  25355.95546171  .02400384  36963-2  80182-2 0  9998",
        "tle_line2": "2 33867  86.3678 345.2475 0014243  91.4909 268.8004 15.90971468896565"
      },
      "geometry": {
        "type": "Point",
        "coordinates": [
          161.17805848637929,
          46.11214371282886
        ]
      }
    },
    {
      "type": "Feature",
      "properties": {
        "norad_id": 33870,
        "name": "IRIDIUM 33 DEB",
        "group": "iridium-33-debris",
        "lat": -61.29625190509971,
        "lon": -119.26468709067801,
        "alt_km": 747.5590963132663,
        "timestamp": "2025-12-22T11:33:20.824544+00:00",
        "meta_object_name": "IRIDIUM 33 DEB",
        "meta_object_id": "1997-051AP",
        "meta_epoch": "2025-12-21T16:45:39.931776",
        "meta_mean_motion": 14.45892249,
        "meta_eccentricity": 0.0022337,
        "meta_inclination": 86.3739,
        "meta_ra_of_asc_node": 54.4207,
        "meta_arg_of_pericenter": 149.5314,
        "meta_mean_anomaly": 337.9924,
        "meta_ephemeris_type": 0,
        "meta_classification_type": "U",
        "meta_norad_cat_id": 33870,
        "meta_element_set_no": 999,
        "meta_rev_at_epoch": 88266,
        "meta_bstar": 0.00052329,
        "meta_mean_motion_dot": 1.884e-05,
        "meta_mean_motion_ddot": 0,
        "tle_line1": "1 33870U 97051AP  25355.69837884  .00001884  00000+0  52329-3 0  9990",
        "tle_line2": "2 33870  86.3739  54.4207 0022337 149.5314 337.9924 14.45892249882660"
      },
      "geometry": {
        "type": "Point",
        "coordinates": [
          -119.26468709067801,
          -61.29625190509971
        ]
      }
    },
    {
      "type": "Feature",
      "properties": {
        "norad_id": 33881,
        "name": "IRIDIUM 33 DEB",
        "group": "iridium-33-debris",
        "lat": 52.912115665920226,
        "lon": -82.28582647615477,
        "alt_km": 657.1203477206154,
        "timestamp": "2025-12-22T11:33:20.824555+00:00",
        "meta_object_name": "IRIDIUM 33 DEB",
        "meta_object_id": "1997-051BA",
        "meta_epoch": "2025-12-22T01:53:28.694112",
        "meta_mean_motion": 14.56726775,
        "meta_eccentricity": 0.0061366,
        "meta_inclination": 86.3868,
        "meta_ra_of_asc_node": 102.6839,
        "meta_arg_of_pericenter": 144.447,
        "meta_mean_anomaly": 32.1992,
        "meta_ephemeris_type": 0,
        "meta_classification_type": "U",
        "meta_norad_cat_id": 33881,
        "meta_element_set_no": 999,
        "meta_rev_at_epoch": 87636,
        "meta_bstar": 0.0020421,
        "meta_mean_motion_dot": 9.388e-05,
        "meta_mean_motion_ddot": 0,
        "tle_line1": "1 33881U 97051BA  25356.07880433  .00009388  00000+0  20421-2 0  9997",
        "tle_line2": "2 33881  86.3868 102.6839 0061366 144.4470  32.1992 14.56726775876365"
      },
      "geometry": {
        "type": "Point",
        "coordinates": [
          -82.28582647615477,
          52.912115665920226
        ]
      }
    },
    {
      "type": "Feature",
      "properties": {
        "norad_id": 33884,
        "name": "IRIDIUM 33 DEB",
        "group": "iridium-33-debris",
        "lat": 83.2680207155759,
        "lon": 37.96397520667923,
        "alt_km": 635.3625391679625,
        "timestamp": "2025-12-22T11:33:20.824565+00:00",
        "meta_object_name": "IRIDIUM 33 DEB",
        "meta_object_id": "1997-051BD",
        "meta_epoch": "2025-12-21T19:42:17.168256",
        "meta_mean_motion": 14.77591703,
        "meta_eccentricity": 0.0008977,
        "meta_inclination": 86.3691,
        "meta_ra_of_asc_node": 5.7181,
        "meta_arg_of_pericenter": 287.8241,
        "meta_mean_anomaly": 245.5748,
        "meta_ephemeris_type": 0,
        "meta_classification_type": "U",
        "meta_norad_cat_id": 33884,
        "meta_element_set_no": 999,
        "meta_rev_at_epoch": 88981,
        "meta_bstar": 0.0012316,
        "meta_mean_motion_dot": 8.831e-05,
        "meta_mean_motion_ddot": 0,
        "tle_line1": "1 33884U 97051BD  25355.82103204  .00008831  00000+0  12316-2 0  9992",
        "tle_line2": "2 33884  86.3691   5.7181 0008977 287.8241 245.5748 14.77591703889819"
      },
      "geometry": {
        "type": "Point",
        "coordinates": [
          37.96397520667923,
          83.2680207155759
        ]
      }
    }
  ]
}